STARLINK-35583          
1 66611U 25270Z   25337.77400088 -.00809515  00000+0 -55667-2 0  9990
2 66611  42.9982 245.9531 0002759 326.8108  33.2588 15.75927889  3054
STARLINK-36039          
1 66612U 25270AA  25337.45681677  .00111686  00000+0  64819-3 0  9994
2 66612  43.0004 247.8729 0004022 347.0774  12.9993 15.77433241  2892
STARLINK-36037          
1 66613U 25270AB  25337.45647043  .00125531  00000+0  72767-3 0  9999
2 66613  43.0001 247.8703 0004122 349.4174  10.6608 15.77412165  2893
STARLINK-36040          
1 66614U 25270AC  25337.77264741 -.00716645  00000+0 -49021-2 0  9995
2 66614  42.9975 245.9411 0001363 296.1870  63.8859 15.75809834  2789
STARLINK-35988          
1 66615U 25270AD  25337.45612351  .00119264  00000+0  69291-3 0  9999
2 66615  43.0005 247.8673 0003977 351.7564   8.3240 15.77383510  2731
STARLINK-35391          
1 66616U 25270AE  25337.77229910 -.00697893  00000+0 -47598-2 0  9996
2 66616  42.9974 245.9395 0003240 227.2502 132.8095 15.75809010  3050
STARLINK-35940          
1 66617U 25271A   25337.91670139 -.01453907  00000+0 -76253-2 0  9994
2 66617  53.1573 230.6018 0000665  97.8995 205.0209 15.82715545  2829
STARLINK-35970          
1 66618U 25271B   25337.91670139 -.02253809  00000+0 -12834-1 0  9999
2 66618  53.1565 230.4436 0000714  93.9750 284.6242 15.81308785  2827
STARLINK-35951          
1 66619U 25271C   25337.91670139 -.01544371  00000+0 -81572-2 0  9992
2 66619  53.1570 230.5831 0000671 101.8066 210.0039 15.82737362  2820
STARLINK-35936          
1 66620U 25271D   25337.91670139 -.01476233  00000+0 -77529-2 0  9992
2 66620  53.1572 230.5973 0000640  97.0279 208.0431 15.82729198  2820
STARLINK-35847          
1 66621U 25271E   25337.91670139 -.02336764  00000+0 -13604-1 0  9991
2 66621  53.1564 230.4315 0000733 104.6611 279.7790 15.80957471  2827
STARLINK-35950          
1 66622U 25271F   25337.91670139 -.01553496  00000+0 -82243-2 0  9990
2 66622  53.1570 230.5778 0000505  85.6752 228.6417 15.82708293  2827
