CCSDS_OMM_VERS = 2.0
CREATION_DATE  = 
ORIGINATOR     = 

OBJECT_NAME    = STARLINK-35583
OBJECT_ID      = 2025-270Z
CENTER_NAME    = EARTH
REF_FRAME      = TEME
TIME_SYSTEM    = UTC
MEAN_ELEMENT_THEORY = SGP/SGP4

EPOCH          = 2025-12-03T18:34:33.676032
MEAN_MOTION    = 15.75927889
ECCENTRICITY   = .00027595
INCLINATION    = 42.9982
RA_OF_ASC_NODE = 245.9531
ARG_OF_PERICENTER = 326.8108
MEAN_ANOMALY   = 33.2588

EPHEMERIS_TYPE = 0
CLASSIFICATION_TYPE = U
NORAD_CAT_ID   = 66611
ELEMENT_SET_NO = 999
REV_AT_EPOCH   = 305
BSTAR          = -.55666969E-2
MEAN_MOTION_DOT = -.809515E-2
MEAN_MOTION_DDOT = 0

CCSDS_OMM_VERS = 2.0
CREATION_DATE  = 
ORIGINATOR     = 

OBJECT_NAME    = STARLINK-36039
OBJECT_ID      = 2025-270AA
CENTER_NAME    = EARTH
REF_FRAME      = TEME
TIME_SYSTEM    = UTC
MEAN_ELEMENT_THEORY = SGP/SGP4

EPOCH          = 2025-12-03T10:57:48.968928
MEAN_MOTION    = 15.77433241
ECCENTRICITY   = .00040224
INCLINATION    = 43.0004
RA_OF_ASC_NODE = 247.8729
ARG_OF_PERICENTER = 347.0774
MEAN_ANOMALY   = 12.9993

EPHEMERIS_TYPE = 0
CLASSIFICATION_TYPE = U
NORAD_CAT_ID   = 66612
ELEMENT_SET_NO = 999
REV_AT_EPOCH   = 289
BSTAR          = .6481925E-3
MEAN_MOTION_DOT = .111686E-2
MEAN_MOTION_DDOT = 0

CCSDS_OMM_VERS = 2.0
CREATION_DATE  = 
ORIGINATOR     = 

OBJECT_NAME    = STARLINK-36037
OBJECT_ID      = 2025-270AB
CENTER_NAME    = EARTH
REF_FRAME      = TEME
TIME_SYSTEM    = UTC
MEAN_ELEMENT_THEORY = SGP/SGP4

EPOCH          = 2025-12-03T10:57:19.045152
MEAN_MOTION    = 15.77412165
ECCENTRICITY   = .0004122
INCLINATION    = 43.0001
RA_OF_ASC_NODE = 247.8703
ARG_OF_PERICENTER = 349.4174
MEAN_ANOMALY   = 10.6608

EPHEMERIS_TYPE = 0
CLASSIFICATION_TYPE = U
NORAD_CAT_ID   = 66613
ELEMENT_SET_NO = 999
REV_AT_EPOCH   = 289
BSTAR          = .72767216E-3
MEAN_MOTION_DOT = .125531E-2
MEAN_MOTION_DDOT = 0

CCSDS_OMM_VERS = 2.0
CREATION_DATE  = 
ORIGINATOR     = 

OBJECT_NAME    = STARLINK-36040
OBJECT_ID      = 2025-270AC
CENTER_NAME    = EARTH
REF_FRAME      = TEME
TIME_SYSTEM    = UTC
MEAN_ELEMENT_THEORY = SGP/SGP4

EPOCH          = 2025-12-03T18:32:36.736224
MEAN_MOTION    = 15.75809834
ECCENTRICITY   = .00013637
INCLINATION    = 42.9975
RA_OF_ASC_NODE = 245.9411
ARG_OF_PERICENTER = 296.1870
MEAN_ANOMALY   = 63.8859

EPHEMERIS_TYPE = 0
CLASSIFICATION_TYPE = U
NORAD_CAT_ID   = 66614
ELEMENT_SET_NO = 999
REV_AT_EPOCH   = 278
BSTAR          = -.49021445E-2
MEAN_MOTION_DOT = -.716645E-2
MEAN_MOTION_DDOT = 0

CCSDS_OMM_VERS = 2.0
CREATION_DATE  = 
ORIGINATOR     = 

OBJECT_NAME    = STARLINK-35988
OBJECT_ID      = 2025-270AD
CENTER_NAME    = EARTH
REF_FRAME      = TEME
TIME_SYSTEM    = UTC
MEAN_ELEMENT_THEORY = SGP/SGP4

EPOCH          = 2025-12-03T10:56:49.071264
MEAN_MOTION    = 15.77383510
ECCENTRICITY   = .0003977
INCLINATION    = 43.0005
RA_OF_ASC_NODE = 247.8673
ARG_OF_PERICENTER = 351.7564
MEAN_ANOMALY   = 8.3240

EPHEMERIS_TYPE = 0
CLASSIFICATION_TYPE = U
NORAD_CAT_ID   = 66615
ELEMENT_SET_NO = 999
REV_AT_EPOCH   = 273
BSTAR          = .69290673E-3
MEAN_MOTION_DOT = .119264E-2
MEAN_MOTION_DDOT = 0

CCSDS_OMM_VERS = 2.0
CREATION_DATE  = 
ORIGINATOR     = 

OBJECT_NAME    = STARLINK-35391
OBJECT_ID      = 2025-270AE
CENTER_NAME    = EARTH
REF_FRAME      = TEME
TIME_SYSTEM    = UTC
MEAN_ELEMENT_THEORY = SGP/SGP4

EPOCH          = 2025-12-03T18:32:06.642240
MEAN_MOTION    = 15.75809010
ECCENTRICITY   = .00032408
INCLINATION    = 42.9974
RA_OF_ASC_NODE = 245.9395
ARG_OF_PERICENTER = 227.2502
MEAN_ANOMALY   = 132.8095

EPHEMERIS_TYPE = 0
CLASSIFICATION_TYPE = U
NORAD_CAT_ID   = 66616
ELEMENT_SET_NO = 999
REV_AT_EPOCH   = 305
BSTAR          = -.47598079E-2
MEAN_MOTION_DOT = -.697893E-2
MEAN_MOTION_DDOT = 0

CCSDS_OMM_VERS = 2.0
CREATION_DATE  = 
ORIGINATOR     = 

OBJECT_NAME    = STARLINK-35940
OBJECT_ID      = 2025-271A
CENTER_NAME    = EARTH
REF_FRAME      = TEME
TIME_SYSTEM    = UTC
MEAN_ELEMENT_THEORY = SGP/SGP4

EPOCH          = 2025-12-03T22:00:03.000096
MEAN_MOTION    = 15.82715545
ECCENTRICITY   = .00006658
INCLINATION    = 53.1573
RA_OF_ASC_NODE = 230.6018
ARG_OF_PERICENTER = 97.8995
MEAN_ANOMALY   = 205.0209

EPHEMERIS_TYPE = 0
CLASSIFICATION_TYPE = U
NORAD_CAT_ID   = 66617
ELEMENT_SET_NO = 999
REV_AT_EPOCH   = 282
BSTAR          = -.76253254E-2
MEAN_MOTION_DOT = -.1453907E-1
MEAN_MOTION_DDOT = 0

CCSDS_OMM_VERS = 2.0
CREATION_DATE  = 
ORIGINATOR     = 

OBJECT_NAME    = STARLINK-35970
OBJECT_ID      = 2025-271B
CENTER_NAME    = EARTH
REF_FRAME      = TEME
TIME_SYSTEM    = UTC
MEAN_ELEMENT_THEORY = SGP/SGP4

EPOCH          = 2025-12-03T22:00:03.000096
MEAN_MOTION    = 15.81308785
ECCENTRICITY   = .00007147
INCLINATION    = 53.1565
RA_OF_ASC_NODE = 230.4436
ARG_OF_PERICENTER = 93.9750
MEAN_ANOMALY   = 284.6242

EPHEMERIS_TYPE = 0
CLASSIFICATION_TYPE = U
NORAD_CAT_ID   = 66618
ELEMENT_SET_NO = 999
REV_AT_EPOCH   = 282
BSTAR          = -.12834203E-1
MEAN_MOTION_DOT = -.2253809E-1
MEAN_MOTION_DDOT = 0

CCSDS_OMM_VERS = 2.0
CREATION_DATE  = 
ORIGINATOR     = 

OBJECT_NAME    = STARLINK-35951
OBJECT_ID      = 2025-271C
CENTER_NAME    = EARTH
REF_FRAME      = TEME
TIME_SYSTEM    = UTC
MEAN_ELEMENT_THEORY = SGP/SGP4

EPOCH          = 2025-12-03T22:00:03.000096
MEAN_MOTION    = 15.82737362
ECCENTRICITY   = .00006716
INCLINATION    = 53.1570
RA_OF_ASC_NODE = 230.5831
ARG_OF_PERICENTER = 101.8066
MEAN_ANOMALY   = 210.0039

EPHEMERIS_TYPE = 0
CLASSIFICATION_TYPE = U
NORAD_CAT_ID   = 66619
ELEMENT_SET_NO = 999
REV_AT_EPOCH   = 282
BSTAR          = -.81572283E-2
MEAN_MOTION_DOT = -.1544371E-1
MEAN_MOTION_DDOT = 0

CCSDS_OMM_VERS = 2.0
CREATION_DATE  = 
ORIGINATOR     = 

OBJECT_NAME    = STARLINK-35936
OBJECT_ID      = 2025-271D
CENTER_NAME    = EARTH
REF_FRAME      = TEME
TIME_SYSTEM    = UTC
MEAN_ELEMENT_THEORY = SGP/SGP4

EPOCH          = 2025-12-03T22:00:03.000096
MEAN_MOTION    = 15.82729198
ECCENTRICITY   = .000064
INCLINATION    = 53.1572
RA_OF_ASC_NODE = 230.5973
ARG_OF_PERICENTER = 97.0279
MEAN_ANOMALY   = 208.0431

EPHEMERIS_TYPE = 0
CLASSIFICATION_TYPE = U
NORAD_CAT_ID   = 66620
ELEMENT_SET_NO = 999
REV_AT_EPOCH   = 282
BSTAR          = -.7752868E-2
MEAN_MOTION_DOT = -.1476233E-1
MEAN_MOTION_DDOT = 0

CCSDS_OMM_VERS = 2.0
CREATION_DATE  = 
ORIGINATOR     = 

OBJECT_NAME    = STARLINK-35847
OBJECT_ID      = 2025-271E
CENTER_NAME    = EARTH
REF_FRAME      = TEME
TIME_SYSTEM    = UTC
MEAN_ELEMENT_THEORY = SGP/SGP4

EPOCH          = 2025-12-03T22:00:03.000096
MEAN_MOTION    = 15.80957471
ECCENTRICITY   = .00007332
INCLINATION    = 53.1564
RA_OF_ASC_NODE = 230.4315
ARG_OF_PERICENTER = 104.6611
MEAN_ANOMALY   = 279.7790

EPHEMERIS_TYPE = 0
CLASSIFICATION_TYPE = U
NORAD_CAT_ID   = 66621
ELEMENT_SET_NO = 999
REV_AT_EPOCH   = 282
BSTAR          = -.13604117E-1
MEAN_MOTION_DOT = -.2336764E-1
MEAN_MOTION_DDOT = 0

CCSDS_OMM_VERS = 2.0
CREATION_DATE  = 
ORIGINATOR     = 

OBJECT_NAME    = STARLINK-35950
OBJECT_ID      = 2025-271F
CENTER_NAME    = EARTH
REF_FRAME      = TEME
TIME_SYSTEM    = UTC
MEAN_ELEMENT_THEORY = SGP/SGP4

EPOCH          = 2025-12-03T22:00:03.000096
MEAN_MOTION    = 15.82708293
ECCENTRICITY   = .00005052
INCLINATION    = 53.1570
RA_OF_ASC_NODE = 230.5778
ARG_OF_PERICENTER = 85.6752
MEAN_ANOMALY   = 228.6417

EPHEMERIS_TYPE = 0
CLASSIFICATION_TYPE = U
NORAD_CAT_ID   = 66622
ELEMENT_SET_NO = 999
REV_AT_EPOCH   = 282
BSTAR          = -.82242808E-2
MEAN_MOTION_DOT = -.1553496E-1
MEAN_MOTION_DDOT = 0

